[{"OBJECT_NAME":"STARLINK-3072","OBJECT_ID":"2021-082Z","EPOCH":"2026-03-09T21:37:49.965600","MEAN_MOTION":14.98311084,"ECCENTRICITY":0.00025109,"INCLINATION":69.9991,"RA_OF_ASC_NODE":253.9202,"ARG_OF_PERICENTER":265.2533,"MEAN_ANOMALY":94.8339,"EPHEMERIS_TYPE":0,"CLASSIFICATION_TYPE":"U","NORAD_CAT_ID":49153,"ELEMENT_SET_NO":999,"REV_AT_EPOCH":24820,"BSTAR":-3.4057024e-5,"MEAN_MOTION_DOT":-4.99e-6,"MEAN_MOTION_DDOT":0},{"OBJECT_NAME":"TIANPING 2A","OBJECT_ID":"2022-032A","EPOCH":"2026-03-09T22:58:37.953408","MEAN_MOTION":14.9690979,"ECCENTRICITY":0.00109299,"INCLINATION":97.5994,"RA_OF_ASC_NODE":109.5163,"ARG_OF_PERICENTER":146.1091,"MEAN_ANOMALY":214.0831,"EPHEMERIS_TYPE":0,"CLASSIFICATION_TYPE":"U","NORAD_CAT_ID":52153,"ELEMENT_SET_NO":999,"REV_AT_EPOCH":21499,"BSTAR":3.4221979e-5,"MEAN_MOTION_DOT":3.37e-6,"MEAN_MOTION_DDOT":0}]
